{
  "type": "FeatureCollection",
  "features": [
    {
      "type": "Feature",
      "properties": {
        "norad_id": 47116,
        "name": "COSMOS 2251 DEB",
        "group": "cosmos-2251-debris",
        "lat": -18.520438636615914,
        "lon": -142.5214668440094,
        "alt_km": 562.748532794456,
        "timestamp": "2025-12-21T11:31:43.258294+00:00",
        "meta_object_name": "COSMOS 2251 DEB",
        "meta_object_id": "1993-036BYJ",
        "meta_epoch": "2025-12-17T22:44:25.492992",
        "meta_mean_motion": 14.98433598,
        "meta_eccentricity": 0.00213127,
        "meta_inclination": 74.0233,
        "meta_ra_of_asc_node": 230.1515,
        "meta_arg_of_pericenter": 323.4041,
        "meta_mean_anomaly": 47.2172,
        "meta_ephemeris_type": 0,
        "meta_classification_type": "U",
        "meta_norad_cat_id": 47116,
        "meta_element_set_no": 999,
        "meta_rev_at_epoch": 59589,
        "meta_bstar": 0.0014083931,
        "meta_mean_motion_dot": 0.000169,
        "meta_mean_motion_ddot": 0,
        "tle_line1": "1 47116U 93036BYJ 25351.94751728  .00016900  00000+0  14084-2 0  9993",
        "tle_line2": "2 47116  74.0233 230.1515 0021312 323.4041  47.2172 14.98433598595896"
      },
      "geometry": {
        "type": "Point",
        "coordinates": [
          -142.5214668440094,
          -18.520438636615914
        ]
      }
    },
    {
      "type": "Feature",
      "properties": {
        "norad_id": 53093,
        "name": "COSMOS 2251 DEB",
        "group": "cosmos-2251-debris",
        "lat": -8.802262567663576,
        "lon": 107.79488837418046,
        "alt_km": 769.7634954426085,
        "timestamp": "2025-12-21T11:31:43.258304+00:00",
        "meta_object_name": "COSMOS 2251 DEB",
        "meta_object_id": "1993-036BYP",
        "meta_epoch": "2025-12-20T21:20:01.559616",
        "meta_mean_motion": 14.41920183,
        "meta_eccentricity": 0.0019716,
        "meta_inclination": 74.037,
        "meta_ra_of_asc_node": 286.3503,
        "meta_arg_of_pericenter": 2.1547,
        "meta_mean_anomaly": 357.969,
        "meta_ephemeris_type": 0,
        "meta_classification_type": "U",
        "meta_norad_cat_id": 53093,
        "meta_element_set_no": 999,
        "meta_rev_at_epoch": 17843,
        "meta_bstar": 0.00056025,
        "meta_mean_motion_dot": 1.813e-05,
        "meta_mean_motion_ddot": 0,
        "tle_line1": "1 53093U 93036BYP 25354.88890694  .00001813  00000+0  56025-3 0  9995",
        "tle_line2": "2 53093  74.0370 286.3503 0019716   2.1547 357.9690 14.41920183178438"
      },
      "geometry": {
        "type": "Point",
        "coordinates": [
          107.79488837418046,
          -8.802262567663576
        ]
      }
    }
  ]
}